{
    "links": {
        "self": "http://www.neowsapp.com/rest/v1/neo/3728370?api_key=iIulBulltgU6a56xZRHN4H3l9WmuAYTsLGpBGhQ2"
    },
    "id": "3728370",
    "neo_reference_id": "3728370",
    "name": "(2015 ST)",
    "designation": "2015 ST",
    "nasa_jpl_url": "http://ssd.jpl.nasa.gov/sbdb.cgi?sstr=3728370",
    "absolute_magnitude_h": 26.2,
    "estimated_diameter": {
        "kilometers": {
            "estimated_diameter_min": 0.0152951935,
            "estimated_diameter_max": 0.0342010925
        },
        "meters": {
            "estimated_diameter_min": 15.2951935344,
            "estimated_diameter_max": 34.201092472
        },
        "miles": {
            "estimated_diameter_min": 0.0095039897,
            "estimated_diameter_max": 0.021251567
        },
        "feet": {
            "estimated_diameter_min": 50.1810827555,
            "estimated_diameter_max": 112.2083122258
        }
    },
    "is_potentially_hazardous_asteroid": false,
    "close_approach_data": [
        {
            "close_approach_date": "2015-09-09",
            "close_approach_date_full": "2015-Sep-09 03:45",
            "epoch_date_close_approach": 1441770300000,
            "relative_velocity": {
                "kilometers_per_second": "10.8708086347",
                "kilometers_per_hour": "39134.9110848386",
                "miles_per_hour": "24316.9118349099"
            },
            "miss_distance": {
                "astronomical": "0.0253962519",
                "lunar": "9.8791419891",
                "kilometers": "3799225.190223453",
                "miles": "2360729.0647435314"
            },
            "orbiting_body": "Earth"
        }
    ],
    "orbital_data": {
        "orbit_id": "7",
        "orbit_determination_date": "2017-04-06 08:31:49",
        "first_observation_date": "2015-09-18",
        "last_observation_date": "2015-10-01",
        "data_arc_in_days": 13,
        "observations_used": 25,
        "orbit_uncertainty": "9",
        "minimum_orbit_intersection": ".0249248",
        "jupiter_tisserand_invariant": "4.073",
        "epoch_osculation": "2457286.5",
        "eccentricity": ".4610405718473238",
        "semi_major_axis": "1.695384329761791",
        "inclination": "7.854407987194735",
        "ascending_node_longitude": "355.7628943202937",
        "orbital_period": "806.307452567114",
        "perihelion_distance": ".9137433688674228",
        "perihelion_argument": "303.1287287793457",
        "aphelion_distance": "2.477025290656159",
        "perihelion_time": "2457237.389144515227",
        "mean_anomaly": "21.92700553396742",
        "mean_motion": ".446479812202945",
        "equinox": "J2000",
        "orbit_class": {
            "orbit_class_type": "APO",
            "orbit_class_description": "Near-Earth asteroid orbits which cross the Earth’s orbit similar to that of 1862 Apollo",
            "orbit_class_range": "a (semi-major axis) > 1.0 AU; q (perihelion) < 1.017 AU"
        }
    },
    "is_sentry_object": false
}